0 COSMOS 1188 DEB
1 26675U 80050E   13277.28537166  .00000196  00000-0  00000+0 0  3716
2 26675 070.4324 010.7308 6272426 350.9980 001.6617 01.94390650138662
0 COSMOS 1188 DEB
1 26675U 80050E   13278.31427939  .00000261  00000-0  00000+0 0  3721
2 26675 070.4336 010.6704 6272215 350.9619 001.6907 01.94390856138681
0 COSMOS 1188 DEB
1 26675U 80050E   13289.63165949 -.00000348  00000-0  00000+0 0  3736
2 26675 070.4524 010.0094 6271327 350.5383 001.8080 01.94398554138905
